1 47542U 21006EC  21298.16510476  .00001168  00000-0  69377-4 0  9995
2 47542  97.4733 356.8813 0011357  19.7370 340.4298 15.13184108 40731
1 47542U 21006EC  21299.15701782  .00001466  00000-0  86175-4 0  9993
2 47542  97.4732 357.8535 0011267  16.2535 343.9056 15.13188420 40884
1 47542U 21006EC  21299.42152762  .00001491  00000-0  87595-4 0  9996
2 47542  97.4732 358.1128 0011239  15.3691 344.7879 15.13189304 40927
1 47542U 21006EC  21300.14892754  .00001728  00000-0  10090-3 0  9998
2 47542  97.4730 358.8256 0011174  12.9649 347.1867 15.13193155 41034
1 47542U 21006EC  21300.74407227  .00001905  00000-0  11084-3 0  9992
2 47542  97.4731 359.4090 0011123  10.9266 349.2204 15.13196184 41128
1 47542U 21006EC  21301.40534390  .00002018  00000-0  11718-3 0  9998
2 47542  97.4730   0.0571 0011063   8.7131 351.4290 15.13198915 41224
1 47542U 21006EC  21301.73597908  .00002063  00000-0  11973-3 0  9991
2 47542  97.4730   0.3811 0011038   7.5678 352.5718 15.13200332 41278
1 47542U 21006EC  21302.13274082  .00002115  00000-0  12266-3 0  9995
2 47542  97.4729   0.7700 0011000   6.2198 353.9168 15.13202070 41331
1 47542U 21006EC  21302.59562920  .00002718  00000-0  15655-3 0  9990
2 47542  97.4729   1.2237 0010967   4.6955 355.4377 15.13206909 41408
1 47542U 21006EC  21303.12464384  .00002734  00000-0  15747-3 0  9995
2 47542  97.4728   1.7421 0010915   2.9170 357.2123 15.13208908 41488
1 47542U 21006EC  21303.78591019  .00002780  00000-0  16005-3 0  9992
2 47542  97.4727   2.3903 0010854   0.6680 359.4564 15.13211917 41580
1 47542U 21006EC  21304.44717778  .00003253  00000-0  18665-3 0  9998
2 47542  97.4731   3.0385 0010747 358.2137   1.9054 15.13213091 41686
1 47542U 21006EC  21304.77780967  .00003190  00000-0  18308-3 0  9998
2 47542  97.4730   3.3625 0010707 357.1586   2.9583 15.13214778 41734
1 47542U 21006EC  21304.97618852  .00003203  00000-0  18381-3 0  9999
2 47542  97.4730   3.5569 0010688 356.4430   3.6724 15.13215993 41769
1 47542U 21006EC  21305.43907247  .00002892  00000-0  16633-3 0  9991
2 47542  97.4730   4.0106 0010635 354.8660   5.2460 15.13217641 41836
1 47542U 21006EC  21305.76970311  .00002739  00000-0  15770-3 0  9990
2 47542  97.4730   4.3347 0010640 353.6805   6.4290 15.13219241 41887
1 47542U 21006EC  21306.10033329  .00003168  00000-0  18183-3 0  9996
2 47542  97.4729   4.6588 0010602 352.5555   7.5517 15.13222619 41936
1 47542U 21006EC  21307.42285002  .00003827  00000-0  21882-3 0  9991
2 47542  97.4727   5.9550 0010470 347.8801  12.2177 15.13232647 42131
1 47542U 21006EC  21307.68735231  .00003845  00000-0  21982-3 0  9994
2 47542  97.4726   6.2142 0010440 346.9554  13.1406 15.13234436 42170
1 47542U 21006EC  21308.41473030  .00004813  00000-0  27414-3 0  9994
2 47542  97.4722   6.9272 0010376 344.3010  15.7898 15.13243043 42283
1 47542U 21006EC  21308.74535209  .00008134  00000-0  46036-3 0  9998
2 47542  97.4722   7.2512 0010360 343.0439  17.0445 15.13257886 42337
1 47542U 21006EC  21309.14211023  .00003475  00000-0  19895-3 0  9994
2 47542  97.4719   7.6402 0010286 341.6777  18.4082 15.13242003 42394
1 47542U 21006EC  21309.47273609  .00002943  00000-0  16907-3 0  9998
2 47542  97.4718   7.9641 0010254 340.3771  19.7065 15.13242686 42444
1 47542U 21006EC  21309.73723626  .00002849  00000-0  16378-3 0  9993
2 47542  97.4717   8.2234 0010236 339.3480  20.7336 15.13244259 42485
1 47542U 21006EC  21310.20011072  .00002695  00000-0  15512-3 0  9990
2 47542  97.4715   8.6769 0010207 337.5091  22.5691 15.13247028 42555
1 47542U 21006EC  21311.39035667  .00002194  00000-0  12696-3 0  9991
2 47542  97.4710   9.8433 0010112 332.9748  27.0956 15.13252616 42737
1 47542U 21006EC  21311.58873060  .00002115  00000-0  12249-3 0  9996
2 47542  97.4710  10.0376 0010099 332.2016  27.8674 15.13253429 42763
1 47542U 21006EC  21312.44834978  .00001944  00000-0  11289-3 0  9999
2 47542  97.4710  10.8799 0010010 329.1426  30.9216 15.13256709 42898
1 47542U 21006EC  21312.91122072  .00001851  00000-0  10768-3 0  9994
2 47542  97.4709  11.3334 0009987 327.3574  32.7039 15.13258493 42965
1 47542U 21006EC  21313.24184252  .00001823  00000-0  10606-3 0  9999
2 47542  97.4709  11.6574 0009962 326.0820  33.9773 15.13259890 43014
1 47542U 21006EC  21313.77083705  .00001599  00000-0  93500-4 0  9993
2 47542  97.4708  12.1757 0009918 324.0756  35.9807 15.13261350 43091
1 47542U 21006EC  21313.96921050  .00001640  00000-0  95792-4 0  9990
2 47542  97.4711  12.3701 0009951 323.3774  36.6775 15.13260587 43122
1 47542U 21006EC  21314.10145834  .00001464  00000-0  85907-4 0  9996
2 47542  97.4708  12.4997 0009891 322.7995  37.2550 15.13262240 43145
1 47542U 21006EC  21314.76270064  .00001506  00000-0  88259-4 0  9992
2 47542  97.4710  13.1477 0009896 320.3278  39.7229 15.13263457 43244
1 47542U 21006EC  21315.15944563  .00001359  00000-0  80007-4 0  9997
2 47542  97.4709  13.5364 0009868 318.7890  41.2596 15.13264167 43302
1 47542U 21006EC  21315.42394212  .00001363  00000-0  80212-4 0  9990
2 47542  97.4709  13.7956 0009846 317.7629  42.2843 15.13265114 43349
1 47542U 21006EC  21315.75456256  .00001286  00000-0  75884-4 0  9996
2 47542  97.4708  14.1196 0009823 316.4361  43.6094 15.13265856 43394
1 47542U 21006EC  21316.48192706  .00001201  00000-0  71103-4 0  9991
2 47542  97.4708  14.8324 0009771 313.5843  46.4576 15.13267703 43501
1 47542U 21006EC  21316.61417497  .00001176  00000-0  69744-4 0  9992
2 47542  97.4708  14.9620 0009761 313.0675  46.9738 15.13268024 43522
1 47542U 21006EC  21316.87867108  .00001051  00000-0  62701-4 0  9996
2 47542  97.4707  15.2211 0009748 312.0313  48.0088 15.13268070 43560
1 47542U 21006EC  21317.53991064  .00001082  00000-0  64421-4 0  9994
2 47542  97.4708  15.8691 0009709 309.4457  50.5914 15.13270043 43665
1 47542U 21006EC  21317.73828238  .00001069  00000-0  63684-4 0  9993
2 47542  97.4707  16.0635 0009696 308.7004  51.3359 15.13270500 43693
1 47542U 21006EC  21318.39952137  .00001081  00000-0  64396-4 0  9997
2 47542  97.4707  16.7114 0009656 306.1305  53.9032 15.13272122 43793
1 47542U 21006EC  21318.92851205  .00000989  00000-0  59179-4 0  9999
2 47542  97.4707  17.2298 0009629 304.0601  55.9716 15.13272833 43877
1 47542U 21006EC  21319.12688350  .00000980  00000-0  58715-4 0  9997
2 47542  97.4706  17.4241 0009618 303.3002  56.7307 15.13273235 43907
1 47542U 21006EC  21319.58974993  .00001110  00000-0  66014-4 0  9995
2 47542  97.4706  17.8777 0009597 301.4818  58.5475 15.13274928 43978
1 47542U 21006EC  21319.92036843  .00001112  00000-0  66114-4 0  9999
2 47542  97.4705  18.2017 0009584 300.1649  59.8632 15.13275680 44025
1 47542U 21006EC  21320.44935728  .00001263  00000-0  74594-4 0  9996
2 47542  97.4705  18.7200 0009568 298.0958  61.9306 15.13277862 44109
1 47542U 21006EC  21320.71385195  .00001216  00000-0  71964-4 0  9999
2 47542  97.4704  18.9792 0009559 297.0447  62.9808 15.13278176 44149
1 47542U 21006EC  21321.24284065  .00001180  00000-0  69935-4 0  9997
2 47542  97.4703  19.4975 0009547 294.9310  65.0929 15.13279200 44225
1 47542U 21006EC  21321.70570542  .00001159  00000-0  68731-4 0  9995
2 47542  97.4702  19.9511 0009527 293.0605  66.9621 15.13280178 44292
1 47542U 21006EC  21321.90407597  .00001185  00000-0  70219-4 0  9999
2 47542  97.4702  20.1454 0009524 292.2522  67.7699 15.13280754 44326
1 47542U 21006EC  21322.43306362  .00001140  00000-0  67659-4 0  9991
2 47542  97.4701  20.6638 0009510 290.1175  69.9033 15.13281823 44403
1 47542U 21006EC  21322.69755747  .00001111  00000-0  66038-4 0  9992
2 47542  97.4700  20.9230 0009506 289.0310  70.9891 15.13282292 44445
1 47542U 21006EC  21322.89592772  .00001064  00000-0  63400-4 0  9998
2 47542  97.4700  21.1173 0009506 288.2328  71.7869 15.13282502 44475
1 47542U 21006EC  21323.42491467  .00001175  00000-0  69628-4 0  9998
2 47542  97.4699  21.6357 0009497 286.0945  73.9241 15.13284418 44556
1 47542U 21006EC  21323.88777750  .00001111  00000-0  66060-4 0  9997
2 47542  97.4698  22.0892 0009467 284.2211  75.7969 15.13285422 44628
1 47542U 21006EC  21324.41676290  .00001279  00000-0  75443-4 0  9994
2 47542  97.4698  22.6076 0009503 282.1622  77.8544 15.13287893 44707
1 47542U 21006EC  21324.74737861  .00001239  00000-0  73208-4 0  9995
2 47542  97.4697  22.9315 0009484 280.8130  79.2033 15.13288699 44751
1 47542U 21006EC  21325.47473272  .00001251  00000-0  73907-4 0  9999
2 47542  97.4696  23.6442 0009477 277.8571  82.1585 15.13290851 44866
1 47542U 21006EC  21325.73922497  .00001252  00000-0  73960-4 0  9996
2 47542  97.4695  23.9033 0009475 276.8051  83.2102 15.13291598 44905
1 47542U 21006EC  21326.40045508  .00001255  00000-0  74119-4 0  9990
2 47542  97.4694  24.5512 0009463 274.1426  85.8723 15.13293400 45000
1 47542U 21006EC  21326.73107012  .00001201  00000-0  71056-4 0  9993
2 47542  97.4694  24.8751 0009461 272.8245  87.1903 15.13293904 45059
1 47542U 21006EC  21327.39229938  .00001191  00000-0  70486-4 0  9992
2 47542  97.4693  25.5230 0009454 270.1230  89.8918 15.13295469 45159
1 47542U 21006EC  21328.11965059  .00001236  00000-0  73023-4 0  9994
2 47542  97.4691  26.2356 0009468 267.2356  92.7791 15.13297516 45264
1 47542U 21006EC  21328.51638742  .00001194  00000-0  70682-4 0  9995
2 47542  97.4691  26.6243 0009461 265.6209  94.3941 15.13298237 45328
1 47542U 21006EC  21329.44210555  .00001200  00000-0  71012-4 0  9992
2 47542  97.4689  27.5312 0009487 261.9047  98.1108 15.13300491 45467
1 47542U 21006EC  21329.70659599  .00001258  00000-0  74281-4 0  9990
2 47542  97.4689  27.7903 0009494 260.8468  99.1689 15.13301525 45507
1 47542U 21006EC  21330.23557699  .00001379  00000-0  81018-4 0  9998
2 47542  97.4688  28.3086 0009506 258.7229 101.2934 15.13303448 45582
1 47542U 21006EC  21330.69843472  .00001403  00000-0  82385-4 0  9991
2 47542  97.4688  28.7621 0009520 256.8534 103.1635 15.13304827 45654
1 47542U 21006EC  21330.89680229  .00001191  00000-0  70479-4 0  9997
2 47542  97.4687  28.9564 0009525 255.9629 104.0543 15.13304209 45686
